#cP2023  2 23  0  0  0.00000000      96 ORBIT IGS20 HLM  IGS
## 2250 345600.00000000   900.00000000 59998 0.0000000000000
+   32   G01G02G03G04G05G06G07G08G09G10G11G12G13G14G15G16G17
+        G18G19G20G21G22G23G24G25G26G27G28G29G30G31G32  0  0
+          0  0  0  0  0  0  0  0  0  0  0  0  0  0  0  0  0
+          0  0  0  0  0  0  0  0  0  0  0  0  0  0  0  0  0
+          0  0  0  0  0  0  0  0  0  0  0  0  0  0  0  0  0
++         2  2  2  3  2  2  2  2  2  2  2  2  2  2  3  2  2
++         2  2  2  2  3  2  2  2  2  2  2  2  2  2  2  0  0
++         0  0  0  0  0  0  0  0  0  0  0  0  0  0  0  0  0
++         0  0  0  0  0  0  0  0  0  0  0  0  0  0  0  0  0
++         0  0  0  0  0  0  0  0  0  0  0  0  0  0  0  0  0
%c G  cc GPS ccc cccc cccc cccc cccc ccccc ccccc ccccc ccccc
%c cc cc ccc ccc cccc cccc cccc cccc ccccc ccccc ccccc ccccc
%f  1.2500000  1.025000000  0.00000000000  0.000000000000000
%f  0.0000000  0.000000000  0.00000000000  0.000000000000000
%i    0    0    0    0      0      0      0      0         0
%i    0    0    0    0      0      0      0      0         0
/* RAPID ORBIT COMBINATION FROM WEIGHTED AVERAGE OF:        
/* cod emr esa gfz grg jpl ngs sio usn whu                  
/* REFERENCED TO IGS TIME (IGST) AND TO WEIGHTED MEAN POLE: 
/* PCV:IGS20_2233 OL/AL:FES2014b NONE     Y  ORB:CMB CLK:CMB
*  2023  2 23  1 30  0.00000000
PG01  21333.041311  14589.651426  -7197.984870    209.567746  7  7  4 119       
PG02 -23427.312442 -11406.773436   5057.133239   -618.984726  5  6  4  80       
PG03  12448.037720  17977.397893  15036.124149   -359.722833  6  3  4  89       
PG04  15179.410986   6934.289777  20696.147340    -21.600637  6  4  7  85       
PG05  -5383.502735 -25913.474711  -1381.761334   -116.952842  9  8  7 103       
PG06  13915.486114  -8949.036314  20868.413639    575.360731  6  3  4  97       
PG07  25319.731959   6348.556430  -5713.221111    235.896580  9  8  5  79       
PG08   4450.217023  15399.055588 -21172.138594   -109.787956  6  6  5 116       
PG09  21661.489363  -3734.939509  14868.013064   -213.141179  6  6  4  86       
PG10 -11818.681681  12827.380685 -19758.354421    -25.843378  8  7  3 110       
PG11   -148.672538 -16254.832043  21022.232396   -111.649517  7  4  5  94       
PG12 -10441.499749 -20199.997542  13524.928820   -343.625877  9  6  7 119       
PG13   4434.848189 -17710.142039 -19395.666234    480.442065 10  5  7 109       
PG14  13774.205689  -9900.140875 -20401.944792    -20.592492  7  4  8  78       
PG15  -6944.983814 -15172.679954 -21073.365124     15.837396  9  8  8 106       
PG16    622.716313  26286.882234    428.218085   -518.814079  5  6  6  86       
PG17  22919.463910 -13224.946408  -2414.591130    701.706560  8  5  5 112       
PG18 -24432.673721  -3386.660272 -10036.501259   -152.029837 10  8  5 119       
PG19  18932.641848 -16930.578798   7036.522128    281.344204  7  5  4 109       
PG20    150.229096 -24727.851746  10003.366874    449.040213  8  3  5  83       
PG21  16710.244907  15500.944107 -13708.795102    154.135850  6  5  5 100       
PG22 -15731.886083  18703.071147  10620.061836    432.506331  6  7  4 128       
PG23 -15089.203862    -14.976111 -21861.036848      7.366068  6  8  6 107       
PG24 -19270.062580 -15011.204776 -11275.669144    -85.094590  8  8  9 119       
PG25 -14988.753913 -10760.876918  18891.938617    422.382231  8 10  6  82       
PG26  -6097.417169  21730.154410  13614.040420    241.699310  8  5  3 118       
PG27  -6995.891711  19573.487130 -16521.829748     95.981559  4  5  6  94       
PG28 -15583.825623   8711.405283  19630.367286     22.750937  8  6  6 117       
PG29 -20287.811165   -670.756546  17121.184669   -587.561874  8  7  4  60       
PG30  20612.856181  -4126.202825 -16288.194550   -529.360169  4  5  6  92       
PG31 -12702.960028  10424.963920  20782.024201   -209.967301  8  6  5 102       
PG32 -21106.518329  15931.826784   -349.974645   -404.360054  9  7  3 113       
*  2023  2 23  1 45  0.00000000
PG01  20427.016888  14363.469671  -9869.082790    209.563944  7  7  4 110       
PG02 -22720.206892 -11444.307578   7813.013875   -618.982402  5  6  4  83       
PG03  12542.314664  19587.249957  12809.506171   -359.718302  6  2  4  88       
PG04  13293.377772   8428.063095  21416.821349    -21.593117  6  5  6  86       
PG05  -5128.927879 -25940.614639   1488.230309   -116.954597  8  7  6 109       
PG06  16029.786705  -8047.156013  19689.591594    575.364308  6  3  3  90       
PG07  25733.091727   6773.213248  -2963.488931    235.890105  8  8  5  92       
PG08   2586.279242  16865.509145 -20310.661618   -109.790919  6  5  5 122       
PG09  20386.024907  -2418.427156  16803.818269   -213.134652  6  6  4  92       
PG10 -12284.464822  10510.248349 -20832.056372    -25.844759  8  7  3 109       
PG11   2096.994703 -15310.760311  21615.884414   -111.658998  7  5  5  96       
PG12 -10367.821333 -21661.184075  11172.710793   -343.629943  8  6  7 108       
PG13   6301.567308 -18688.411426 -17871.120036    480.447735  9  5  8 124       
PG14  14148.351481  -7543.523671 -21151.197151    -20.584080  7  5  7  79       
PG15  -5305.164891 -16774.954627 -20279.775735     15.840686  9  8  9  97       
PG16    328.167423  26056.588720   3310.643463   -518.812621  6  5  6 125       
PG17  22643.627715 -12775.479335  -5249.809570    701.708497  8  6  6  94       
PG18 -25280.824459  -3937.105646  -7400.748727   -152.044236 10  8  6 124       
PG19  19625.908615 -17102.172239   4234.912484    281.348865  7  6  4  95       
PG20    778.832569 -23594.968634  12408.503964    449.037690  7  3  5  89       
PG21  14986.778010  15160.567048 -15760.492832    154.136477  6  5  4  98       
PG22 -16701.090205  19084.485838   8024.386083    432.513085  7  7  4 119       
PG23 -15517.893484  -2450.956534 -21431.977765      7.367697  6  9  6 107       
PG24 -17896.204468 -14858.587964 -13544.556189    -85.108830  8  8  9 109       
PG25 -15203.315250 -12880.957023  17382.287002    422.385052  8  9  7  89       
PG26  -6729.499511  20118.018190  15656.832279    241.699532  8  5  3 116       
PG27  -8467.327756  20536.188134 -14474.476940     95.973569  4  5  6  93       
PG28 -17597.234887   7886.460040  18229.319515     22.763217  8  6  6 123       
PG29 -18661.184632  -1934.647426  18782.696150   -587.563628  7  6  3  70       
PG30  22175.085100  -3276.292957 -14347.565854   -529.358947  3  6  5  78       
PG31 -14849.264107   9463.614967  19845.462482   -209.968205  8  6  5 111       
PG32 -21108.723804  15578.358688  -3205.934504   -404.370308  9  8  4 109       
*  2023  2 23  2  0  0.00000000
PG01  19235.798798  14097.352371 -12375.784705    209.560206  7  6  5 108       
PG02 -21724.232211 -11446.986252  10435.270123   -618.980068  5  6  4  89       
PG03  12668.247400  20929.116892  10362.241853   -359.713770  6  2  4  89       
PG04  11441.363300  10058.871190  21769.747421    -21.585622  6  6  6  88       
PG05  -4791.115795 -25667.423611   4332.370932   -116.955582  8  7  6 104       
PG06  18046.646205  -7313.919165  18174.774150    575.367895  6  3  3  93       
PG07  25872.087767   7076.785798   -163.914465    235.883295  8  8  5  94       
PG08    882.539614  18347.314995 -19098.375396   -109.793863  6  5  5 126       
PG09  19032.274061   -897.710436  18449.440867   -213.128172  5  6  5  99       
PG10 -12895.970713   8124.099281 -21539.495061    -25.846367  7  7  3 105       
PG11   4432.891902 -14470.250880  21838.087268   -111.668486  6  5  5  93       
PG12 -10332.515257 -22846.361990   8626.573113   -343.634134  8  5  8 110       
PG13   7959.402812 -19658.702310 -16040.935294    480.452855  8  5  8 126       
PG14  14651.519377  -5146.776632 -21535.740328    -20.575674  7  5  7  88       
PG15  -3810.206129 -18375.571760 -19148.305540     15.843659 10  8  9 106       
PG16    -21.421876  25516.588986   6134.143876   -518.810878  7  4  6 127       
PG17  22146.717903 -12109.152617  -7994.254344    701.710382  8  6  6  79       
PG18 -25868.561935  -4342.838908  -4638.675186   -152.058611  9  8  6 117       
PG19  20045.804780 -17119.506953   1358.844198    281.353532  8  6  4 101       
PG20   1560.073233 -22254.684745  14602.709152    449.035463  6  3  4  96       
PG21  13026.401027  14864.836080 -17539.404214    154.136370  5  4  4 125       
PG22 -17414.308122  19331.173061   5291.252151    432.520051  7  8  3 112       
PG23 -16060.334318  -4791.504477 -20634.687368      7.369279  5  9  5 109       
PG24 -16283.903204 -14720.147993 -15589.464586    -85.123102  8  9  8 116       
PG25 -15483.232446 -14799.084818  15569.490874    422.387881  8  9  7  93       
PG26  -7495.484972  18329.967750  17424.205241    241.699769  8  5  4 122       
PG27  -9707.797822  21409.729284 -12176.724427     95.965640  5  6  5 109       
PG28 -19480.673857   7215.309615  16513.726844     22.775400  9  5  7 124       
PG29 -16971.689108  -3391.422937  20120.531337   -587.565455  7  6  3  87       
PG30  23554.732005  -2577.703806 -12161.506735   -529.357716  2  5  5  77       
PG31 -16919.049560   8656.473462  18566.277971   -209.969088  8  6  4 111       
PG32 -20893.467425  15005.475866  -6005.882141   -404.380585  9  8  5 112       
EOF
